OBJECT_NAME,OBJECT_ID,EPOCH,MEAN_MOTION,ECCENTRICITY,INCLINATION,RA_OF_ASC_NODE,ARG_OF_PERICENTER,MEAN_ANOMALY,EPHEMERIS_TYPE,CLASSIFICATION_TYPE,NORAD_CAT_ID,ELEMENT_SET_NO,REV_AT_EPOCH,BSTAR,MEAN_MOTION_DOT,MEAN_MOTION_DDOT
ONEWEB-0522,2022-138AD,2026-06-03T11:53:27.094272,13.19726982,.0001713,87.9170,307.6835,93.4338,266.6991,0,U,54140,999,17500,.82591E-4,.46E-6,0
ONEWEB-0523,2022-138AE,2026-06-03T07:36:57.610080,13.20769742,.00026341,87.9188,277.2046,108.9725,251.1694,0,U,54141,999,17747,.11002556E-3,.58E-6,0
ONEWEB-0524,2022-138AF,2026-06-03T07:22:25.167072,13.20770766,.00021267,87.9206,277.2012,126.5102,233.6227,0,U,54142,999,17747,.25203605E-3,.115E-5,0
ONEWEB-0525,2022-138AG,2026-06-03T23:15:47.746368,13.19724544,.00014298,87.9168,307.5982,94.5041,265.6255,0,U,54143,999,17508,.4037997E-5,.15E-6,0
ONEWEB-0526,2022-138AH,2026-06-03T11:19:21.244224,13.19729901,.00015119,87.9152,307.6974,79.8519,280.2784,0,U,54144,999,17499,.80426675E-3,.335E-5,0
ONEWEB-0529,2022-138AJ,2026-06-03T11:23:52.342368,13.19727181,.00015158,87.9162,307.7080,105.5586,254.5714,0,U,54145,999,17501,.42332645E-3,.182E-5,0
ONEWEB-0531,2022-138AK,2026-06-04T17:35:45.358368,13.20772866,.00028212,87.9199,276.9157,121.6194,238.5215,0,U,54146,999,17766,.71385751E-4,.42E-6,0
ONEWEB-0535,2022-138AL,2026-06-03T23:06:41.675904,13.19724184,.00021683,87.9167,307.5932,97.3434,262.7945,0,U,54147,999,17509,-.83109975E-4,-.2E-6,0
ONEWEB-0536,2022-138AM,2026-06-04T06:21:47.930112,13.20770589,.00026368,87.9184,277.0333,120.7777,239.3616,0,U,54148,999,17759,.11185503E-3,.58E-6,0
ONEWEB-0527,2022-166A,2026-06-04T16:21:10.733472,13.21435298,.00019189,87.9259,246.4828,98.0439,262.0913,0,U,54642,999,16988,-.10742693E+0,-.43885E-3,0
ONEWEB-0528,2022-166B,2026-06-04T16:29:01.262688,13.21750757,.00012402,87.9252,246.4871,66.4305,293.6959,0,U,54643,999,16989,-.2171235E-1,-.8935E-4,0
ONEWEB-0539,2022-166C,2026-06-04T17:24:37.101888,13.21826222,.00020864,87.9264,246.4498,94.9233,265.2139,0,U,54644,999,16989,-.11325624E-4,.8E-7,0
ONEWEB-0540,2022-166D,2026-06-04T17:34:30.061632,13.21826506,.00020914,87.9258,246.4796,98.6114,261.5257,0,U,54645,999,16988,.10184779E-3,.55E-6,0
ONEWEB-0542,2022-166E,2026-06-04T17:39:08.912448,13.21826904,.00021598,87.9266,246.4460,90.2389,269.8993,0,U,54646,999,16989,.55374992E-4,.36E-6,0
ONEWEB-0545,2022-166F,2026-06-04T05:54:15.623424,13.21828055,.00023532,87.9255,246.5563,90.7220,269.4184,0,U,54647,999,16979,.16372014E-4,.2E-6,0
ONEWEB-0580,2022-166G,2026-06-04T16:11:56.298624,13.21826445,.00023764,87.9254,246.4710,91.1520,268.9887,0,U,54648,999,16989,.15837041E-3,.78E-6,0
ONEWEB-0582,2022-166H,2026-06-04T17:12:30.328416,13.21825705,.00024076,87.9259,246.4561,95.0287,265.1122,0,U,54649,999,16987,-.82664909E-4,-.21E-6,0
ONEWEB-0583,2022-166J,2026-06-04T17:29:27.552768,13.21826562,.00021136,87.9259,246.4762,96.6373,263.5002,0,U,54650,999,16988,-.4505023E-4,-.6E-7,0
ONEWEB-0584,2022-166K,2026-06-04T16:09:30.014784,13.21824220,.00021664,87.9254,246.4729,97.5533,262.5847,0,U,54651,999,16986,.16598535E-3,.82E-6,0
ONEWEB-0585,2022-166L,2026-06-04T05:49:25.253760,13.21826019,.00018687,87.9260,246.5452,102.4027,257.7317,0,U,54652,999,16981,-.64086549E-4,-.13E-6,0
ONEWEB-0586,2022-166M,2026-06-04T17:02:46.390560,13.21829084,.00019198,87.9265,246.4760,94.0625,266.0728,0,U,54653,999,16987,-.12599212E-3,-.39E-6,0
ONEWEB-0587,2022-166N,2026-06-04T17:17:19.089312,13.21827954,.0001838,87.9270,246.4482,110.2963,249.8369,0,U,54654,999,17003,-.8130648E-5,.1E-6,0
ONEWEB-0589,2022-166P,2026-06-04T16:57:55.829952,13.21828433,.00027104,87.9249,246.4656,87.8348,272.3096,0,U,54655,999,16989,-.12091588E-4,.8E-7,0
ONEWEB-0590,2022-166Q,2026-06-04T17:34:06.369024,13.21826265,.000235,87.9265,246.4483,108.3780,251.7610,0,U,54656,999,16988,.49528666E-3,.218E-5,0
ONEWEB-0591,2022-166R,2026-06-04T17:51:16.028928,13.21825186,.00021126,87.9257,246.4619,99.1556,260.9817,0,U,54657,999,16991,.95102599E-4,.52E-6,0
ONEWEB-0592,2022-166S,2026-06-04T16:07:06.156192,13.21826896,.00020107,87.9266,246.4536,97.9776,262.1586,0,U,54658,999,16978,.21538978E-3,.102E-5,0
ONEWEB-0593,2022-166T,2026-06-04T05:44:33.223488,13.21828024,.00019922,87.9259,246.5518,94.9999,265.1363,0,U,54659,999,16983,.41239671E-4,.3E-6,0
ONEWEB-0594,2022-166U,2026-06-04T17:07:37.034112,13.21828363,.00019626,87.9258,246.4744,103.3242,256.8111,0,U,54660,999,16991,-.11712122E-3,-.35E-6,0
ONEWEB-0595,2022-166V,2026-06-04T05:39:43.290144,13.21826684,.00019386,87.9265,246.5482,105.7109,254.4239,0,U,54661,999,16982,.56174074E-4,.36E-6,0
ONEWEB-0596,2022-166W,2026-06-04T17:46:25.025088,13.21826475,.00020329,87.9260,246.4603,106.9352,253.2005,0,U,54662,999,16989,.65038859E-4,.4E-6,0
