ONEWEB-0522             
1 54140U 22138AD  26154.49545248  .00000046  00000+0  82591-4 0  9997
2 54140  87.9170 307.6835 0001713  93.4338 266.6991 13.19726982175002
ONEWEB-0523             
1 54141U 22138AE  26154.31733345  .00000058  00000+0  11003-3 0  9998
2 54141  87.9188 277.2046 0002634 108.9725 251.1694 13.20769742177478
ONEWEB-0524             
1 54142U 22138AF  26154.30723573  .00000115  00000+0  25204-3 0  9992
2 54142  87.9206 277.2012 0002126 126.5102 233.6227 13.20770766177479
ONEWEB-0525             
1 54143U 22138AG  26154.96930262  .00000015  00000+0  40380-5 0  9993
2 54143  87.9168 307.5982 0001429  94.5041 265.6255 13.19724544175083
ONEWEB-0526             
1 54144U 22138AH  26154.47177366  .00000335  00000+0  80427-3 0  9997
2 54144  87.9152 307.6974 0001511  79.8519 280.2784 13.19729901174998
ONEWEB-0529             
1 54145U 22138AJ  26154.47491137  .00000182  00000+0  42333-3 0  9997
2 54145  87.9162 307.7080 0001515 105.5586 254.5714 13.19727181175013
ONEWEB-0531             
1 54146U 22138AK  26155.73316387  .00000042  00000+0  71386-4 0  9997
2 54146  87.9199 276.9157 0002821 121.6194 238.5215 13.20772866177664
ONEWEB-0535             
1 54147U 22138AL  26154.96298236 -.00000020  00000+0 -83110-4 0  9990
2 54147  87.9167 307.5932 0002168  97.3434 262.7945 13.19724184175094
ONEWEB-0536             
1 54148U 22138AM  26155.26513808  .00000058  00000+0  11186-3 0  9992
2 54148  87.9184 277.0333 0002636 120.7777 239.3616 13.20770589177595
ONEWEB-0527             
1 54642U 22166A   26155.68137423 -.00043885  00000+0 -10743+0 0  9994
2 54642  87.9259 246.4828 0001918  98.0439 262.0913 13.21435298169882
ONEWEB-0528             
1 54643U 22166B   26155.68682017 -.00008935  00000+0 -21712-1 0  9996
2 54643  87.9252 246.4871 0001240  66.4305 293.6959 13.21750757169894
ONEWEB-0539             
1 54644U 22166C   26155.72542942  .00000008  00000+0 -11326-4 0  9999
2 54644  87.9264 246.4498 0002086  94.9233 265.2139 13.21826222169894
ONEWEB-0540             
1 54645U 22166D   26155.73229238  .00000055  00000+0  10185-3 0  9993
2 54645  87.9258 246.4796 0002091  98.6114 261.5257 13.21826506169888
ONEWEB-0542             
1 54646U 22166E   26155.73551982  .00000036  00000+0  55375-4 0  9998
2 54646  87.9266 246.4460 0002159  90.2389 269.8993 13.21826904169894
ONEWEB-0545             
1 54647U 22166F   26155.24601416  .00000020  00000+0  16372-4 0  9990
2 54647  87.9255 246.5563 0002353  90.7220 269.4184 13.21828055169799
ONEWEB-0580             
1 54648U 22166G   26155.67495716  .00000078  00000+0  15837-3 0  9999
2 54648  87.9254 246.4710 0002376  91.1520 268.9887 13.21826445169891
ONEWEB-0582             
1 54649U 22166H   26155.71701769 -.00000021  00000+0 -82665-4 0  9997
2 54649  87.9259 246.4561 0002407  95.0287 265.1122 13.21825705169876
ONEWEB-0583             
1 54650U 22166J   26155.72879112 -.00000006  00000+0 -45050-4 0  9998
2 54650  87.9259 246.4762 0002113  96.6373 263.5002 13.21826562169880
ONEWEB-0584             
1 54651U 22166K   26155.67326406  .00000082  00000+0  16599-3 0  9993
2 54651  87.9254 246.4729 0002166  97.5533 262.5847 13.21824220169868
ONEWEB-0585             
1 54652U 22166L   26155.24265340 -.00000013  00000+0 -64087-4 0  9998
2 54652  87.9260 246.5452 0001868 102.4027 257.7317 13.21826019169813
ONEWEB-0586             
1 54653U 22166M   26155.71025915 -.00000039  00000+0 -12599-3 0  9991
2 54653  87.9265 246.4760 0001919  94.0625 266.0728 13.21829084169877
ONEWEB-0587             
1 54654U 22166N   26155.72035983  .00000010  00000+0 -81306-5 0  9991
2 54654  87.9270 246.4482 0001838 110.2963 249.8369 13.21827954170035
ONEWEB-0589             
1 54655U 22166P   26155.70689618  .00000008  00000+0 -12092-4 0  9992
2 54655  87.9249 246.4656 0002710  87.8348 272.3096 13.21828433169894
ONEWEB-0590             
1 54656U 22166Q   26155.73201816  .00000218  00000+0  49529-3 0  9992
2 54656  87.9265 246.4483 0002350 108.3780 251.7610 13.21826265169883
ONEWEB-0591             
1 54657U 22166R   26155.74393552  .00000052  00000+0  95103-4 0  9999
2 54657  87.9257 246.4619 0002112  99.1556 260.9817 13.21825186169916
ONEWEB-0592             
1 54658U 22166S   26155.67159903  .00000102  00000+0  21539-3 0  9999
2 54658  87.9266 246.4536 0002010  97.9776 262.1586 13.21826896169783
ONEWEB-0593             
1 54659U 22166T   26155.23927342  .00000030  00000+0  41240-4 0  9994
2 54659  87.9259 246.5518 0001992  94.9999 265.1363 13.21828024169836
ONEWEB-0594             
1 54660U 22166U   26155.71362308 -.00000035  00000+0 -11712-3 0  9991
2 54660  87.9258 246.4744 0001962 103.3242 256.8111 13.21828363169913
ONEWEB-0595             
1 54661U 22166V   26155.23591771  .00000036  00000+0  56174-4 0  9998
2 54661  87.9265 246.5482 0001938 105.7109 254.4239 13.21826684169822
ONEWEB-0596             
1 54662U 22166W   26155.74056742  .00000040  00000+0  65039-4 0  9994
2 54662  87.9260 246.4603 0002032 106.9352 253.2005 13.21826475169894
